[
    {
        "CCSDS_OMM_VERS": "3.0",
        "COMMENT": "GENERATED VIA SPACE-TRACK.ORG API",
        "CREATION_DATE": "2025-05-03T07:16:48",
        "ORIGINATOR": "18 SPCS",
        "OBJECT_NAME": "BEIDOU 10",
        "OBJECT_ID": "2011-073A",
        "CENTER_NAME": "EARTH",
        "REF_FRAME": "TEME",
        "TIME_SYSTEM": "UTC",
        "MEAN_ELEMENT_THEORY": "SGP4",
        "EPOCH": "2025-05-02T21:40:20.352576",
        "MEAN_MOTION": "1.00258581",
        "ECCENTRICITY": "0.01032240",
        "INCLINATION": "48.4277",
        "RA_OF_ASC_NODE": "276.6018",
        "ARG_OF_PERICENTER": "218.9249",
        "MEAN_ANOMALY": "145.0570",
        "EPHEMERIS_TYPE": "0",
        "CLASSIFICATION_TYPE": "U",
        "NORAD_CAT_ID": "37948",
        "ELEMENT_SET_NO": "999",
        "REV_AT_EPOCH": "4929",
        "BSTAR": "0.00000000000000",
        "MEAN_MOTION_DOT": "-0.00000196",
        "MEAN_MOTION_DDOT": "0.0000000000000",
        "SEMIMAJOR_AXIS": "42168.434",
        "PERIOD": "1436.286",
        "APOAPSIS": "36225.578",
        "PERIAPSIS": "35355.019",
        "OBJECT_TYPE": "PAYLOAD",
        "RCS_SIZE": "LARGE",
        "COUNTRY_CODE": "PRC",
        "LAUNCH_DATE": "2011-12-01",
        "SITE": "XSC",
        "DECAY_DATE": null,
        "FILE": "4717569",
        "GP_ID": "286736010",
        "TLE_LINE0": "0 BEIDOU 10",
        "TLE_LINE1": "1 37948U 11073A   25122.90301334 -.00000196  00000-0  00000+0 0  9994",
        "TLE_LINE2": "2 37948  48.4277 276.6018 0103224 218.9249 145.0570  1.00258581 49298"
    }
]